{
  "version": 1,
  "fetchedAt": "2026-06-21T12:32:46.387Z",
  "source": "celestrak-gp",
  "counts": {
    "station": 24,
    "satellite": 520,
    "debris": 250
  },
  "objects": [
    {
      "id": "41727",
      "name": "GAOFEN-3",
      "noradId": 41727,
      "line1": "1 41727U 16049A   26172.24665741  .00000159  00000+0  61378-4 0  9997",
      "line2": "2 41727  98.4013 179.9719 0001484  98.3441 261.7917 14.42216194519234",
      "category": "satellite"
    },
    {
      "id": "41771",
      "name": "SKYSAT-C4",
      "noradId": 41771,
      "line1": "1 41771U 16058B   26171.30447646  .00014622  00000+0  27482-3 0  9991",
      "line2": "2 41771  96.9172 192.9462 0001584 137.0730 223.0646 15.48669604545958",
      "category": "satellite"
    },
    {
      "id": "41772",
      "name": "SKYSAT-C5",
      "noradId": 41772,
      "line1": "1 41772U 16058C   26171.36447191  .00006273  00000+0  18990-3 0  9990",
      "line2": "2 41772  97.0466 211.8632 0000885 282.7780  77.3365 15.34507683544234",
      "category": "satellite"
    },
    {
      "id": "41773",
      "name": "SKYSAT-C2",
      "noradId": 41773,
      "line1": "1 41773U 16058D   26170.98472481  .00010132  00000+0  23850-3 0  9998",
      "line2": "2 41773  97.0167 192.9745 0004463  64.8229 295.3482 15.42124031545481",
      "category": "satellite"
    },
    {
      "id": "41774",
      "name": "SKYSAT-C3",
      "noradId": 41774,
      "line1": "1 41774U 16058E   26171.36592513  .00020111  00000+0  32765-3 0  9994",
      "line2": "2 41774  96.9003 202.0899 0001389 101.4792 258.6618 15.52656860546608",
      "category": "satellite"
    },
    {
      "id": "41785",
      "name": "ALSAT-1B",
      "noradId": 41785,
      "line1": "1 41785U 16059C   26172.18205410  .00000078  00000+0  19799-4 0  9998",
      "line2": "2 41785  97.7750 180.7737 0008435 205.3977 154.6817 14.72276343521164",
      "category": "satellite"
    },
    {
      "id": "41787",
      "name": "PATHFINDER 1",
      "noradId": 41787,
      "line1": "1 41787U 16059E   26170.93178020  .00000403  00000+0  78648-4 0  9997",
      "line2": "2 41787  97.8166 170.0842 0028007 194.6747 165.3648 14.67665593520117",
      "category": "satellite"
    },
    {
      "id": "41790",
      "name": "SCATSAT 1",
      "noradId": 41790,
      "line1": "1 41790U 16059H   26171.45951691  .00000807  00000+0  11295-3 0  9994",
      "line2": "2 41790  98.1189 235.2594 0053498 236.6981 122.9100 14.79531207102077",
      "category": "satellite"
    },
    {
      "id": "41875",
      "name": "GOKTURK 1A",
      "noradId": 41875,
      "line1": "1 41875U 16073A   26172.14476208  .00000440  00000+0  95344-4 0  9998",
      "line2": "2 41875  98.1241  66.7571 0001443  77.4549 282.6814 14.62777641509406",
      "category": "satellite"
    },
    {
      "id": "41877",
      "name": "RESOURCESAT-2A",
      "noradId": 41877,
      "line1": "1 41877U 16074A   26172.15295868 -.00000231  00000+0 -85265-4 0  9994",
      "line2": "2 41877  98.7522 245.6252 0003286  77.5283 282.6262 14.21616825494864",
      "category": "satellite"
    },
    {
      "id": "41948",
      "name": "CARTOSAT-2D",
      "noradId": 41948,
      "line1": "1 41948U 17008A   26172.17621251  .00003763  00000+0  18181-3 0  9995",
      "line2": "2 41948  97.4098 231.4079 0004261 217.6615 142.4322 15.19231824518189",
      "category": "satellite"
    },
    {
      "id": "42063",
      "name": "SENTINEL-2B",
      "noradId": 42063,
      "line1": "1 42063U 17013A   26172.19350594 -.00000080  00000+0 -13848-4 0  9998",
      "line2": "2 42063  98.5686 246.9118 0001170  89.4658 270.6659 14.30817478485217",
      "category": "satellite"
    },
    {
      "id": "42767",
      "name": "CARTOSAT-2E",
      "noradId": 42767,
      "line1": "1 42767U 17036C   26172.19393682  .00002524  00000+0  12290-3 0  9991",
      "line2": "2 42767  97.4265 231.9308 0002198 297.3542  62.7469 15.19278434498750",
      "category": "satellite"
    },
    {
      "id": "42920",
      "name": "FORMOSAT-5",
      "noradId": 42920,
      "line1": "1 42920U 17049A   26171.43210432  .00000097  00000+0  35731-4 0  9992",
      "line2": "2 42920  98.2254 246.6698 0012638  75.3872 284.8723 14.50899817467140",
      "category": "satellite"
    },
    {
      "id": "42969",
      "name": "SENTINEL-5P",
      "noradId": 42969,
      "line1": "1 42969U 17064A   26171.44423655  .00000041  00000+0  40558-4 0  9998",
      "line2": "2 42969  98.7925 113.5524 0000991  87.3098 272.8191 14.19519441450027",
      "category": "satellite"
    },
    {
      "id": "42987",
      "name": "SKYSAT-C11",
      "noradId": 42987,
      "line1": "1 42987U 17068A   26171.39718881  .00024827  00000+0  33189-3 0  9993",
      "line2": "2 42987  97.4360 320.3680 0000512  98.6776 261.4537 15.58039677483749",
      "category": "satellite"
    },
    {
      "id": "42988",
      "name": "SKYSAT-C10",
      "noradId": 42988,
      "line1": "1 42988U 17068B   26171.35690127  .00007409  00000+0  22285-3 0  9994",
      "line2": "2 42988  97.4513 308.2348 0001114 100.0018 260.1351 15.34683060482847",
      "category": "satellite"
    },
    {
      "id": "42989",
      "name": "SKYSAT-C9",
      "noradId": 42989,
      "line1": "1 42989U 17068C   26171.35464766  .00011033  00000+0  26366-3 0  9995",
      "line2": "2 42989  97.4434 309.1976 0009511 123.1012 237.1149 15.41629285483247",
      "category": "satellite"
    },
    {
      "id": "42990",
      "name": "SKYSAT-C8",
      "noradId": 42990,
      "line1": "1 42990U 17068D   26171.32343326  .00008930  00000+0  24879-3 0  9991",
      "line2": "2 42990  97.4530 308.0128 0001437  95.5767 264.5641 15.37027507482795",
      "category": "satellite"
    },
    {
      "id": "42991",
      "name": "SKYSAT-C7",
      "noradId": 42991,
      "line1": "1 42991U 17068E   26171.38225694  .00009012  00000+0  25123-3 0  9990",
      "line2": "2 42991  97.4541 309.0621 0007174  97.6868 262.5191 15.36980206482865",
      "category": "satellite"
    },
    {
      "id": "42992",
      "name": "SKYSAT-C6",
      "noradId": 42992,
      "line1": "1 42992U 17068F   26171.34260987  .00007933  00000+0  24159-3 0  9999",
      "line2": "2 42992  97.4576 308.9800 0004575 129.5530 230.6117 15.34256947482808",
      "category": "satellite"
    },
    {
      "id": "43111",
      "name": "CARTOSAT-2F",
      "noradId": 43111,
      "line1": "1 43111U 18004A   26172.16035264  .00002958  00000+0  14366-3 0  9994",
      "line2": "2 43111  97.4784 231.7558 0001111 186.9525 173.1694 15.19240466467930",
      "category": "satellite"
    },
    {
      "id": "43259",
      "name": "GAOFEN-1 02",
      "noradId": 43259,
      "line1": "1 43259U 18031A   26172.16141586  .00000523  00000+0  82535-4 0  9992",
      "line2": "2 43259  98.0519 234.6778 0003510  24.5798 335.5578 14.76461443443285",
      "category": "satellite"
    },
    {
      "id": "43260",
      "name": "GAOFEN-1 03",
      "noradId": 43260,
      "line1": "1 43260U 18031B   26172.20730297  .00000480  00000+0  76375-4 0  9999",
      "line2": "2 43260  98.0516 234.5814 0003643  70.8912 289.2692 14.76473654443282",
      "category": "satellite"
    },
    {
      "id": "43262",
      "name": "GAOFEN-1 04",
      "noradId": 43262,
      "line1": "1 43262U 18031D   26172.18309422 -.00000031  00000+0  29675-5 0  9995",
      "line2": "2 43262  98.0521 234.7485 0002119  73.8828 286.2615 14.76436818443274",
      "category": "satellite"
    },
    {
      "id": "43437",
      "name": "SENTINEL-3B",
      "noradId": 43437,
      "line1": "1 43437U 18039A   26171.41568603  .00000074  00000+0  48499-4 0  9990",
      "line2": "2 43437  98.6248 238.9017 0000727  94.6800 265.4463 14.26735540424583",
      "category": "satellite"
    },
    {
      "id": "43461",
      "name": "GAOFEN-5 01",
      "noradId": 43461,
      "line1": "1 43461U 18043A   26171.34997235  .00000232  00000+0  57864-4 0  9993",
      "line2": "2 43461  98.4569 143.0025 0003017  78.1831 281.9707 14.60607261432157",
      "category": "satellite"
    },
    {
      "id": "43484",
      "name": "GAOFEN-6",
      "noradId": 43484,
      "line1": "1 43484U 18048A   26172.20476626  .00000481  00000+0  76186-4 0  9999",
      "line2": "2 43484  97.9704 234.9010 0011985 153.2395 206.9436 14.76601938433984",
      "category": "satellite"
    },
    {
      "id": "43585",
      "name": "GAOFEN-11 01",
      "noradId": 43585,
      "line1": "1 43585U 18063A   26172.22659973  .00011114  00000+0  16486-3 0  9999",
      "line2": "2 43585  97.1288 239.0949 0002588 339.0155  21.0993 15.55386595440977",
      "category": "satellite"
    },
    {
      "id": "43613",
      "name": "ICESAT-2",
      "noradId": 43613,
      "line1": "1 43613U 18070A   26171.42893477  .00008058  00000+0  29199-3 0  9997",
      "line2": "2 43613  92.0081 291.8551 0006110 100.1552 260.0387 15.28330924432958",
      "category": "satellite"
    },
    {
      "id": "43719",
      "name": "HYSIS",
      "noradId": 43719,
      "line1": "1 43719U 18096A   26172.13640244  .00000258  00000+0  42251-4 0  9992",
      "line2": "2 43719  97.9833 238.8536 0001768  97.8195 262.3216 14.78621362408005",
      "category": "satellite"
    }
  ]
}